*******************************************************************************
Ephemeris / WWW_USER Mon Jul 15 19:15:05 2024 Pasadena, USA      / Horizons    
*******************************************************************************
Target body name: (2018 WV1)                      {source: JPL#17}
Center body name: Earth (399)                     {source: DE441}
Center-site name: Gemini South Obs., Cerro Pachon
*******************************************************************************
Start time      : A.D. 2018-Dec-28 23:56:00.0000 UT      
Stop  time      : A.D. 2018-Dec-29 09:33:00.0000 UT      
Step-size       : 1 minutes
*******************************************************************************
Target pole/equ : undefined
Target radii    : undefined                                                    
Center geodetic : 289.2634, -30.2406227, 2.71233  {E-lon(deg),Lat(deg),Alt(km)}
Center cylindric: 289.2634,5517.21435,-3194.81213 {E-lon(deg),Dxy(km),Dz(km)}
Center pole/equ : ITRF93                          {East-longitude positive}
Center radii    : 6378.137, 6378.137, 6356.752 km {Equator_a, b, pole_c}       
Target primary  : Sun
Vis. interferer : MOON (R_eq= 1737.400) km        {source: DE441}
Rel. light bend : Sun                             {source: DE441}
Rel. lght bnd GM: 1.3271E+11 km^3/s^2                                          
Small-body perts: Yes                             {source: SB441-N16}
Atmos refraction: NO (AIRLESS)
RA format       : HMS
Time format     : CAL 
Calendar mode   : Mixed Julian/Gregorian
RTS-only print  : NO       
EOP file        : eop.240715.p241008                                           
EOP coverage    : DATA-BASED 1962-JAN-20 TO 2024-JUL-15. PREDICTS-> 2024-OCT-07
Units conversion: 1 au= 149597870.700 km, c= 299792.458 km/s, 1 day= 86400.0 s 
Table cut-offs 1: Elevation (-90.0deg=NO ),Airmass (>38.000=NO), Daylight (YES)
Table cut-offs 2: Solar elongation (  0.0,180.0=NO ),Local Hour Angle( 0.0=NO )
Table cut-offs 3: RA/DEC angular rate (     0.0=NO )                           
*******************************************************************************
Initial IAU76/J2000 heliocentric ecliptic osculating elements (au, days, deg.):
  EPOCH=  2458458.5 ! 2018-Dec-06.00 (TDB)         Residual RMS= .12928        
   EC= .06869100257422787  QR= .9715505345748198   TP= 2458416.866413563       
   OM= 248.5061090469913   W=  141.3742304527303   IN= 1.905403987972275       
  Equivalent ICRF heliocentric cartesian coordinates (au, au/d):
   X= 2.787163119783287E-01  Y= 8.719775267121872E-01  Z= 3.748421051204766E-01
  VX=-1.676682657337402E-02 VY= 5.516972965834891E-03 VZ= 1.749720915605096E-03
Asteroid physical parameters (km, seconds, rotational period in hours):        
   GM= n.a.                RAD= n.a.               ROTPER= n.a.                
   H= 30.3                 G= .150                 B-V= n.a.                   
                           ALBEDO= n.a.            STYP= n.a.                  
*******************************************************************************
 Date__(UT)__HR:MN     R.A._________(ICRF)_________DEC
******************************************************
$$SOE
 2018-Dec-29 04:02     05 57 56.974864 -06 02 16.41430
 2018-Dec-29 04:03     05 57 56.893176 -06 02 15.87276
 2018-Dec-29 04:04     05 57 56.811480 -06 02 15.33069
 2018-Dec-29 04:05     05 57 56.729777 -06 02 14.78809
 2018-Dec-29 04:06     05 57 56.648070 -06 02 14.24497
 2018-Dec-29 04:07     05 57 56.566359 -06 02 13.70132
 2018-Dec-29 04:08     05 57 56.484647 -06 02 13.15715
 2018-Dec-29 04:09     05 57 56.402934 -06 02 12.61245
 2018-Dec-29 04:10     05 57 56.321221 -06 02 12.06722
 2018-Dec-29 04:11     05 57 56.239511 -06 02 11.52147
 2018-Dec-29 04:12  t  05 57 56.157805 -06 02 10.97519
 2018-Dec-29 04:13     05 57 56.076104 -06 02 10.42838
 2018-Dec-29 04:14     05 57 55.994410 -06 02 09.88105
 2018-Dec-29 04:15     05 57 55.912723 -06 02 09.33320
 2018-Dec-29 04:16     05 57 55.831047 -06 02 08.78481
 2018-Dec-29 04:17     05 57 55.749381 -06 02 08.23590
 2018-Dec-29 04:18     05 57 55.667728 -06 02 07.68647
 2018-Dec-29 04:19     05 57 55.586089 -06 02 07.13651
 2018-Dec-29 04:20     05 57 55.504465 -06 02 06.58603
 2018-Dec-29 04:21     05 57 55.422857 -06 02 06.03502
 2018-Dec-29 04:22     05 57 55.341269 -06 02 05.48348
 2018-Dec-29 04:23     05 57 55.259699 -06 02 04.93142
 2018-Dec-29 04:24     05 57 55.178151 -06 02 04.37883
 2018-Dec-29 04:25     05 57 55.096626 -06 02 03.82572
 2018-Dec-29 04:26     05 57 55.015124 -06 02 03.27209
 2018-Dec-29 04:27     05 57 54.933648 -06 02 02.71793
 2018-Dec-29 04:28     05 57 54.852199 -06 02 02.16325
 2018-Dec-29 04:29     05 57 54.770778 -06 02 01.60804
 2018-Dec-29 04:30     05 57 54.689387 -06 02 01.05231
 2018-Dec-29 04:31     05 57 54.608027 -06 02 00.49605
 2018-Dec-29 04:32     05 57 54.526700 -06 01 59.93927
 2018-Dec-29 04:33     05 57 54.445407 -06 01 59.38197
 2018-Dec-29 04:34     05 57 54.364149 -06 01 58.82415
 2018-Dec-29 04:35     05 57 54.282928 -06 01 58.26580
 2018-Dec-29 04:36     05 57 54.201746 -06 01 57.70693
 2018-Dec-29 04:37  m  05 57 54.120604 -06 01 57.14754
 2018-Dec-29 04:38  m  05 57 54.039503 -06 01 56.58763
 2018-Dec-29 04:39  m  05 57 53.958444 -06 01 56.02719
 2018-Dec-29 04:40  m  05 57 53.877430 -06 01 55.46623
 2018-Dec-29 04:41  m  05 57 53.796461 -06 01 54.90476
 2018-Dec-29 04:42  m  05 57 53.715540 -06 01 54.34276
 2018-Dec-29 04:43  m  05 57 53.634666 -06 01 53.78024
 2018-Dec-29 04:44  m  05 57 53.553843 -06 01 53.21721
 2018-Dec-29 04:45  m  05 57 53.473071 -06 01 52.65365
 2018-Dec-29 04:46  m  05 57 53.392351 -06 01 52.08957
 2018-Dec-29 04:47  m  05 57 53.311686 -06 01 51.52498
 2018-Dec-29 04:48  m  05 57 53.231076 -06 01 50.95987
 2018-Dec-29 04:49  m  05 57 53.150523 -06 01 50.39423
 2018-Dec-29 04:50  m  05 57 53.070029 -06 01 49.82809
 2018-Dec-29 04:51  m  05 57 52.989594 -06 01 49.26142
 2018-Dec-29 04:52  m  05 57 52.909221 -06 01 48.69424
 2018-Dec-29 04:53  m  05 57 52.828910 -06 01 48.12654
 2018-Dec-29 04:54  m  05 57 52.748664 -06 01 47.55832
 2018-Dec-29 04:55  m  05 57 52.668483 -06 01 46.98960
 2018-Dec-29 04:56  m  05 57 52.588368 -06 01 46.42035
 2018-Dec-29 04:57  m  05 57 52.508323 -06 01 45.85059
 2018-Dec-29 04:58  m  05 57 52.428347 -06 01 45.28032
 2018-Dec-29 04:59  m  05 57 52.348442 -06 01 44.70953
 2018-Dec-29 05:00  m  05 57 52.268609 -06 01 44.13823
 2018-Dec-29 05:01  m  05 57 52.188851 -06 01 43.56642
 2018-Dec-29 05:02  m  05 57 52.109168 -06 01 42.99410
 2018-Dec-29 05:03  m  05 57 52.029561 -06 01 42.42126
 2018-Dec-29 05:04  m  05 57 51.950033 -06 01 41.84792
 2018-Dec-29 05:05  m  05 57 51.870585 -06 01 41.27406
 2018-Dec-29 05:06  m  05 57 51.791217 -06 01 40.69969
 2018-Dec-29 05:07  m  05 57 51.711932 -06 01 40.12482
 2018-Dec-29 05:08  m  05 57 51.632730 -06 01 39.54944
 2018-Dec-29 05:09  m  05 57 51.553614 -06 01 38.97355
 2018-Dec-29 05:10  m  05 57 51.474584 -06 01 38.39715
 2018-Dec-29 05:11  m  05 57 51.395642 -06 01 37.82024
 2018-Dec-29 05:12  m  05 57 51.316790 -06 01 37.24283
 2018-Dec-29 05:13  m  05 57 51.238028 -06 01 36.66491
 2018-Dec-29 05:14  m  05 57 51.159358 -06 01 36.08649
 2018-Dec-29 05:15  m  05 57 51.080782 -06 01 35.50756
 2018-Dec-29 05:16  m  05 57 51.002301 -06 01 34.92814
 2018-Dec-29 05:17  m  05 57 50.923916 -06 01 34.34820
 2018-Dec-29 05:18  m  05 57 50.845629 -06 01 33.76777
 2018-Dec-29 05:19  m  05 57 50.767440 -06 01 33.18683
 2018-Dec-29 05:20  m  05 57 50.689352 -06 01 32.60540
 2018-Dec-29 05:21  m  05 57 50.611366 -06 01 32.02346
 2018-Dec-29 05:22  m  05 57 50.533483 -06 01 31.44102
 2018-Dec-29 05:23  m  05 57 50.455704 -06 01 30.85809
 2018-Dec-29 05:24  m  05 57 50.378032 -06 01 30.27465
 2018-Dec-29 05:25  m  05 57 50.300466 -06 01 29.69072
 2018-Dec-29 05:26  m  05 57 50.223009 -06 01 29.10630
 2018-Dec-29 05:27  m  05 57 50.145662 -06 01 28.52138
 2018-Dec-29 05:28  m  05 57 50.068426 -06 01 27.93596
 2018-Dec-29 05:29  m  05 57 49.991303 -06 01 27.35005
 2018-Dec-29 05:30  m  05 57 49.914294 -06 01 26.76364
 2018-Dec-29 05:31  m  05 57 49.837400 -06 01 26.17675
 2018-Dec-29 05:32  m  05 57 49.760623 -06 01 25.58936
 2018-Dec-29 05:33  m  05 57 49.683965 -06 01 25.00148
 2018-Dec-29 05:34  m  05 57 49.607425 -06 01 24.41311
 2018-Dec-29 05:35  m  05 57 49.531006 -06 01 23.82425
 2018-Dec-29 05:36  m  05 57 49.454710 -06 01 23.23490
 2018-Dec-29 05:37  m  05 57 49.378536 -06 01 22.64507
 2018-Dec-29 05:38  m  05 57 49.302488 -06 01 22.05475
 2018-Dec-29 05:39  m  05 57 49.226565 -06 01 21.46394
 2018-Dec-29 05:40  m  05 57 49.150770 -06 01 20.87265
 2018-Dec-29 05:41  m  05 57 49.075104 -06 01 20.28087
 2018-Dec-29 05:42  m  05 57 48.999568 -06 01 19.68861
 2018-Dec-29 05:43  m  05 57 48.924163 -06 01 19.09587
 2018-Dec-29 05:44  m  05 57 48.848891 -06 01 18.50265
 2018-Dec-29 05:45  m  05 57 48.773752 -06 01 17.90894
 2018-Dec-29 05:46  m  05 57 48.698750 -06 01 17.31476
 2018-Dec-29 05:47  m  05 57 48.623883 -06 01 16.72010
 2018-Dec-29 05:48  m  05 57 48.549155 -06 01 16.12496
 2018-Dec-29 05:49  m  05 57 48.474566 -06 01 15.52935
 2018-Dec-29 05:50  m  05 57 48.400118 -06 01 14.93326
 2018-Dec-29 05:51  m  05 57 48.325811 -06 01 14.33669
 2018-Dec-29 05:52  m  05 57 48.251648 -06 01 13.73965
 2018-Dec-29 05:53  m  05 57 48.177629 -06 01 13.14214
 2018-Dec-29 05:54  m  05 57 48.103755 -06 01 12.54416
 2018-Dec-29 05:55  m  05 57 48.030029 -06 01 11.94571
 2018-Dec-29 05:56  m  05 57 47.956451 -06 01 11.34678
 2018-Dec-29 05:57  m  05 57 47.883023 -06 01 10.74739
 2018-Dec-29 05:58  m  05 57 47.809746 -06 01 10.14753
 2018-Dec-29 05:59  m  05 57 47.736620 -06 01 09.54721
 2018-Dec-29 06:00  m  05 57 47.663648 -06 01 08.94642
 2018-Dec-29 06:01  m  05 57 47.590831 -06 01 08.34516
 2018-Dec-29 06:02  m  05 57 47.518170 -06 01 07.74345
 2018-Dec-29 06:03  m  05 57 47.445666 -06 01 07.14127
 2018-Dec-29 06:04  m  05 57 47.373321 -06 01 06.53862
